IRIDIUM 112             
1 41925U 17003J   25327.66526420  .00000282  00000+0  93681-4 0  9994
2 41925  86.3991 174.1771 0002102  83.0077 277.1357 14.34218445463817
IRIDIUM 111             
1 41926U 17003K   25327.65257987  .00000280  00000+0  93100-4 0  9997
2 41926  86.3994 174.2484 0001936  87.2094 272.9323 14.34216841463793
IRIDIUM 113             
1 42803U 17039A   25327.77207264  .00000272  00000+0  90134-4 0  9992
2 42803  86.3987  48.0223 0002061  91.9000 268.2432 14.34217207441745
IRIDIUM 123             
1 42804U 17039B   25327.74379206  .00000346  00000+0  11652-3 0  9995
2 42804  86.3960  79.5199 0001725  98.7129 261.4262 14.34218306440501
IRIDIUM 120             
1 42805U 17039C   25327.76574154  .00000360  00000+0  12162-3 0  9990
2 42805  86.3977  47.8342 0002209 105.9372 254.2067 14.34218100441738
IRIDIUM 115             
1 42806U 17039D   25327.76064277  .00000446  00000+0  12652-3 0  9990
2 42806  86.4515  47.9370 0001813 109.3458 250.7939 14.43281118444633
IRIDIUM 118             
1 42807U 17039E   25327.77551417  .00000344  00000+0  11561-3 0  9994
2 42807  86.3961  79.5057 0001988  90.7291 269.4132 14.34216124440501
IRIDIUM 117             
1 42808U 17039F   25327.72476470  .00000340  00000+0  11435-3 0  9991
2 42808  86.3959  79.4864 0001830  95.4685 264.6720 14.34218227440527
